{
  "type": "FeatureCollection",
  "features": [
    {
      "type": "Feature",
      "properties": {
        "norad_id": 52912,
        "name": "GAOFEN-12 03",
        "group": "resource",
        "lat": -28.691328787728914,
        "lon": 54.71709178870148,
        "alt_km": 637.7546745761992,
        "timestamp": "2025-12-17T19:34:07.702632+00:00",
        "meta_object_name": "GAOFEN-12 03",
        "meta_object_id": "2022-069A",
        "meta_epoch": "2025-12-17T07:15:59.683968",
        "meta_mean_motion": 14.79618283,
        "meta_eccentricity": 0.00020993,
        "meta_inclination": 97.8486,
        "meta_ra_of_asc_node": 238.546,
        "meta_arg_of_pericenter": 55.4328,
        "meta_mean_anomaly": 304.7082,
        "meta_ephemeris_type": 0,
        "meta_classification_type": "U",
        "meta_norad_cat_id": 52912,
        "meta_element_set_no": 999,
        "meta_rev_at_epoch": 18771,
        "meta_bstar": 6.3110113e-05,
        "meta_mean_motion_dot": 4.22e-06,
        "meta_mean_motion_ddot": 0,
        "tle_line1": "1 52912U 22069A   25351.30277412  .00000422  00000+0  63110-4 0  9992",
        "tle_line2": "2 52912  97.8486 238.5460 0002099  55.4328 304.7082 14.79618283187715"
      },
      "geometry": {
        "type": "Point",
        "coordinates": [
          54.71709178870148,
          -28.691328787728914
        ]
      }
    },
    {
      "type": "Feature",
      "properties": {
        "norad_id": 54754,
        "name": "SWOT",
        "group": "resource",
        "lat": 2.8827413493585823,
        "lon": 99.50420195013736,
        "alt_km": 895.520814872636,
        "timestamp": "2025-12-17T19:34:07.702642+00:00",
        "meta_object_name": "SWOT",
        "meta_object_id": "2022-173A",
        "meta_epoch": "2025-12-17T06:43:19.951392",
        "meta_mean_motion": 14.00167571,
        "meta_eccentricity": 3.682e-05,
        "meta_inclination": 77.6107,
        "meta_ra_of_asc_node": 280.8607,
        "meta_arg_of_pericenter": 100.516,
        "meta_mean_anomaly": 259.6033,
        "meta_ephemeris_type": 0,
        "meta_classification_type": "U",
        "meta_norad_cat_id": 54754,
        "meta_element_set_no": 999,
        "meta_rev_at_epoch": 15369,
        "meta_bstar": 6.3214219e-05,
        "meta_mean_motion_dot": 9.1e-07,
        "meta_mean_motion_ddot": 0,
        "tle_line1": "1 54754U 22173A   25351.28009203  .00000091  00000+0  63214-4 0  9999",
        "tle_line2": "2 54754  77.6107 280.8607 0000368 100.5160 259.6033 14.00167571153690"
      },
      "geometry": {
        "type": "Point",
        "coordinates": [
          99.50420195013736,
          2.8827413493585823
        ]
      }
    },
    {
      "type": "Feature",
      "properties": {
        "norad_id": 57654,
        "name": "GAOFEN-12 04",
        "group": "resource",
        "lat": 19.86858155659377,
        "lon": -95.38542087898007,
        "alt_km": 629.8105289605228,
        "timestamp": "2025-12-17T19:34:07.702653+00:00",
        "meta_object_name": "GAOFEN-12 04",
        "meta_object_id": "2023-123A",
        "meta_epoch": "2025-12-17T08:07:04.589184",
        "meta_mean_motion": 14.79713606,
        "meta_eccentricity": 0.00012635,
        "meta_inclination": 97.9125,
        "meta_ra_of_asc_node": 267.0256,
        "meta_arg_of_pericenter": 74.9605,
        "meta_mean_anomaly": 285.1746,
        "meta_ephemeris_type": 0,
        "meta_classification_type": "U",
        "meta_norad_cat_id": 57654,
        "meta_element_set_no": 999,
        "meta_rev_at_epoch": 12573,
        "meta_bstar": 0.00015865688,
        "meta_mean_motion_dot": 1.14e-05,
        "meta_mean_motion_ddot": 0,
        "tle_line1": "1 57654U 23123A   25351.33824756  .00001140  00000+0  15866-3 0  9996",
        "tle_line2": "2 57654  97.9125 267.0256 0001263  74.9605 285.1746 14.79713606125738"
      },
      "geometry": {
        "type": "Point",
        "coordinates": [
          -95.38542087898007,
          19.86858155659377
        ]
      }
    },
    {
      "type": "Feature",
      "properties": {
        "norad_id": 59065,
        "name": "PARS 1",
        "group": "resource",
        "lat": 80.64438293715374,
        "lon": -164.42443530081462,
        "alt_km": 428.96226414184275,
        "timestamp": "2025-12-17T19:34:07.702663+00:00",
        "meta_object_name": "PARS 1",
        "meta_object_id": "2024-039Q",
        "meta_epoch": "2025-12-17T06:41:21.744096",
        "meta_mean_motion": 15.41077671,
        "meta_eccentricity": 0.0012292,
        "meta_inclination": 97.4631,
        "meta_ra_of_asc_node": 322.3081,
        "meta_arg_of_pericenter": 58.6743,
        "meta_mean_anomaly": 301.5705,
        "meta_ephemeris_type": 0,
        "meta_classification_type": "U",
        "meta_norad_cat_id": 59065,
        "meta_element_set_no": 999,
        "meta_rev_at_epoch": 10058,
        "meta_bstar": 0.00024459937,
        "meta_mean_motion_dot": 0.00010051,
        "meta_mean_motion_ddot": 0,
        "tle_line1": "1 59065U 24039Q   25351.27872389  .00010051  00000+0  24460-3 0  9990",
        "tle_line2": "2 59065  97.4631 322.3081 0012292  58.6743 301.5705 15.41077671100589"
      },
      "geometry": {
        "type": "Point",
        "coordinates": [
          -164.42443530081462,
          80.64438293715374
        ]
      }
    },
    {
      "type": "Feature",
      "properties": {
        "norad_id": 59371,
        "name": "RESURS-P 4",
        "group": "resource",
        "lat": 73.02541271907992,
        "lon": -86.62512386141857,
        "alt_km": 461.7271729837357,
        "timestamp": "2025-12-17T19:34:07.702673+00:00",
        "meta_object_name": "RESURS-P 4",
        "meta_object_id": "2024-061A",
        "meta_epoch": "2025-12-17T08:16:19.663392",
        "meta_mean_motion": 15.3212237,
        "meta_eccentricity": 0.00011846,
        "meta_inclination": 97.2547,
        "meta_ra_of_asc_node": 297.5801,
        "meta_arg_of_pericenter": 56.3789,
        "meta_mean_anomaly": 303.7566,
        "meta_ephemeris_type": 0,
        "meta_classification_type": "U",
        "meta_norad_cat_id": 59371,
        "meta_element_set_no": 999,
        "meta_rev_at_epoch": 9591,
        "meta_bstar": 0.00011078295,
        "meta_mean_motion_dot": 3.36e-05,
        "meta_mean_motion_ddot": 0,
        "tle_line1": "1 59371U 24061A   25351.34467203  .00003360  00000+0  11078-3 0  9994",
        "tle_line2": "2 59371  97.2547 297.5801 0001184  56.3789 303.7566 15.32122370 95915"
      },
      "geometry": {
        "type": "Point",
        "coordinates": [
          -86.62512386141857,
          73.02541271907992
        ]
      }
    },
    {
      "type": "Feature",
      "properties": {
        "norad_id": 59625,
        "name": "LEGION 1",
        "group": "resource",
        "lat": 14.962494252712576,
        "lon": 64.38727197183829,
        "alt_km": 516.8182181733082,
        "timestamp": "2025-12-17T19:34:07.702684+00:00",
        "meta_object_name": "LEGION 1",
        "meta_object_id": "2024-081A",
        "meta_epoch": "2025-12-17T06:50:02.072544",
        "meta_mean_motion": 15.16525603,
        "meta_eccentricity": 0.0003735,
        "meta_inclination": 97.5215,
        "meta_ra_of_asc_node": 65.8847,
        "meta_arg_of_pericenter": 297.2527,
        "meta_mean_anomaly": 62.8325,
        "meta_ephemeris_type": 0,
        "meta_classification_type": "U",
        "meta_norad_cat_id": 59625,
        "meta_element_set_no": 999,
        "meta_rev_at_epoch": 8996,
        "meta_bstar": 0.00022114494,
        "meta_mean_motion_dot": 4.244e-05,
        "meta_mean_motion_ddot": 0,
        "tle_line1": "1 59625U 24081A   25351.28474621  .00004244  00000+0  22114-3 0  9998",
        "tle_line2": "2 59625  97.5215  65.8847 0003735 297.2527  62.8325 15.16525603 89960"
      },
      "geometry": {
        "type": "Point",
        "coordinates": [
          64.38727197183829,
          14.962494252712576
        ]
      }
    },
    {
      "type": "Feature",
      "properties": {
        "norad_id": 59626,
        "name": "LEGION 2",
        "group": "resource",
        "lat": -15.090035774594028,
        "lon": -115.54344389499049,
        "alt_km": 520.251843106219,
        "timestamp": "2025-12-17T19:34:07.702694+00:00",
        "meta_object_name": "LEGION 2",
        "meta_object_id": "2024-081B",
        "meta_epoch": "2025-12-17T06:02:31.680384",
        "meta_mean_motion": 15.16537463,
        "meta_eccentricity": 0.00056243,
        "meta_inclination": 97.5218,
        "meta_ra_of_asc_node": 65.9394,
        "meta_arg_of_pericenter": 274.2156,
        "meta_mean_anomaly": 85.8434,
        "meta_ephemeris_type": 0,
        "meta_classification_type": "U",
        "meta_norad_cat_id": 59626,
        "meta_element_set_no": 999,
        "meta_rev_at_epoch": 8996,
        "meta_bstar": 0.00019789146,
        "meta_mean_motion_dot": 3.792e-05,
        "meta_mean_motion_ddot": 0,
        "tle_line1": "1 59626U 24081B   25351.25175556  .00003792  00000+0  19789-3 0  9992",
        "tle_line2": "2 59626  97.5218  65.9394 0005624 274.2156  85.8434 15.16537463 89967"
      },
      "geometry": {
        "type": "Point",
        "coordinates": [
          -115.54344389499049,
          -15.090035774594028
        ]
      }
    }
  ]
}